[{"OBJECT_NAME":"STARLINK-31523","OBJECT_ID":"2024-046V","EPOCH":"2026-03-09T12:31:35.372352","MEAN_MOTION":15.30187874,"ECCENTRICITY":0.0001268,"INCLINATION":53.1606,"RA_OF_ASC_NODE":156.1291,"ARG_OF_PERICENTER":69.7087,"MEAN_ANOMALY":290.405,"EPHEMERIS_TYPE":0,"CLASSIFICATION_TYPE":"U","NORAD_CAT_ID":59220,"ELEMENT_SET_NO":999,"REV_AT_EPOCH":11301,"BSTAR":5.4258412e-5,"MEAN_MOTION_DOT":1.248e-5,"MEAN_MOTION_DDOT":0},{"OBJECT_NAME":"OBJECT H","OBJECT_ID":"2025-055H","EPOCH":"2026-03-09T23:29:50.051328","MEAN_MOTION":15.30330066,"ECCENTRICITY":0.00075967,"INCLINATION":97.636,"RA_OF_ASC_NODE":211.9572,"ARG_OF_PERICENTER":140.4354,"MEAN_ANOMALY":219.7441,"EPHEMERIS_TYPE":0,"CLASSIFICATION_TYPE":"U","NORAD_CAT_ID":63298,"ELEMENT_SET_NO":999,"REV_AT_EPOCH":5423,"BSTAR":0.0015582864,"MEAN_MOTION_DOT":0.00045901,"MEAN_MOTION_DDOT":0}]
